CUTE-1 (CO-55)          
1 27844U 03031E   24207.47374199  .00000802  00000+0  37283-3 0  9996
2 27844  98.6772 213.9699 0010528  39.7895 320.4053 14.23332945 93265
CUBESAT XI-IV (CO-57)   
1 27848U 03031J   24207.00110693  .00000734  00000+0  34675-3 0  9992
2 27848  98.6802 213.7274 0010668  55.7771 304.4416 14.22763994 92968
CUBESAT XI-V            
1 28895U 05043F   24207.07384956  .00003657  00000+0  64638-3 0  9991
2 28895  98.2069 342.9690 0014661 235.1835 124.7991 14.67957079   240
CUTE-1.7+APD II (CO-65) 
1 32785U 08021C   24207.51723439  .00007240  00000+0  62874-3 0  9997
2 32785  97.7567 172.5408 0010909 185.9588 174.1506 14.97278293881281
AAUSAT-II               
1 32788U 08021F   24206.93594500  .00029325  00000+0  13802-2 0  9994
2 32788  97.5958 187.3380 0007066  66.0400 294.1574 15.19479346884155
CANX-2                  
1 32790U 08021H   24207.42034371  .00005490  00000+0  49744-3 0  9999
2 32790  97.7687 171.1635 0011339 200.3567 159.7203 14.95722951881088
SEEDS II (CO-66)        
1 32791U 08021J   24207.38183608  .00011867  00000+0  84470-3 0  9993
2 32791  97.6934 178.3638 0006475 153.4848 206.6711 15.04765246882341
SWISSCUBE               
1 35932U 09051B   24206.87842747  .00002369  00000+0  51194-3 0  9990
2 35932  98.4660  90.9390 0006731 191.8039 168.3003 14.59249285788053
BEESAT-1                
1 35933U 09051C   24206.89042623  .00002068  00000+0  45112-3 0  9997
2 35933  98.4587  91.8109 0004819 202.3094 157.7896 14.58959803788127
ITUPSAT1                
1 35935U 09051E   24207.20671128  .00001856  00000+0  41515-3 0  9990
2 35935  98.4688  91.8973 0006935 213.1679 146.9085 14.57904639787833
TISAT 1                 
1 36799U 10035E   24207.16061215  .00010716  00000+0  79254-3 0  9994
2 36799  98.0858  98.2574 0006825 101.3943 258.8049 15.03364152762967
AEROCUBE 4.5A           
1 38767U 12048K   24207.43833553  .00021353  00000+0  10977-2 0  9994
2 38767  64.6586 191.1100 0110396   5.0140 355.2058 15.11274897266244
AEROCUBE 4.5B           
1 38768U 12048L   24206.71567152  .00052258  00000+0  16929-2 0  9995
2 38768  64.6543 115.8192 0087006 352.3561   7.6235 15.28049921267150
STRAND-1                
1 39090U 13009E   24206.48223930  .00000862  00000+0  31031-3 0  9995
2 39090  98.3816  33.7420 0009700 135.8601 224.3361 14.36139690597595
BRITE-AUSTRIA           
1 39091U 13009F   24207.44109228  .00000545  00000+0  20268-3 0  9994
2 39091  98.3861  33.9479 0011086 140.6628 219.5366 14.35852846597769
NEE-01 PEGASO           
1 39151U 13018B   24207.32570127  .00004683  00000+0  53946-3 0  9994
2 39151  98.0402 324.8261 0013625 275.5334  84.4327 14.86139146607640
ESTCUBE 1               
1 39161U 13021C   24207.42640625  .00003485  00000+0  50483-3 0  9993
2 39161  97.8260 272.7285 0010372 105.7096 254.5259 14.76669479602771
POPACS 1                
1 39268U 13055D   24207.14366478  .00045032  00000+0  75717-3 0  9999
2 39268  80.9802 107.5962 0392891 330.6635  27.3016 14.96211179567676
POPACS 2                
1 39269U 13055E   24206.95862536  .00014824  00000+0  34040-3 0  9993
2 39269  81.0011 198.3104 0545395 207.4159 149.7279 14.58126591561101
POPACS 3                
1 39270U 13055F   24207.53957806  .00010813  00000+0  29471-3 0  9991
2 39270  81.0056 249.6612 0622795 351.4244   7.6664 14.38204410559170
ZACUBE-1 (TSHEPISOSAT)  
1 39417U 13066B   24207.41190024  .00008134  00000+0  83310-3 0  9999
2 39417  97.7357 162.5364 0051174  36.1415 324.3243 14.89761296577271
WNISAT-1                
1 39423U 13066H   24207.52137593  .00001604  00000+0  31471-3 0  9996
2 39423  97.6701  38.7414 0168361 248.7737 109.5407 14.55385762566226
TRITON-1                
1 39427U 13066M   24207.53194584  .00005399  00000+0  75500-3 0  9990
2 39427  97.8392 124.2892 0100822 319.4835  39.8898 14.74524267572055
DELFI-N3XT              
1 39428U 13066N   24207.37014079  .00010179  00000+0  12768-2 0  9991
2 39428  97.8356 124.7088 0098440 325.8401  33.6501 14.78956076571918
GOMX-1                  
1 39430U 13066Q   24207.52174226  .00003722  00000+0  61666-3 0  9990
2 39430  97.7273  79.5821 0140623 130.5334 230.8217 14.64417085568656
CUBEBUG-2 (LO-74)       
1 39440U 13066AA  24207.14927353  .00004837  00000+0  56575-3 0  9997
2 39440  97.8137 150.0117 0070337 148.7652 211.7771 14.83758947575161
NEE-02 KRYSAOR          
1 39441U 13066AB  24207.09095292  .00003481  00000+0  44153-3 0  9993
2 39441  97.8227 145.6815 0074211 171.3768 188.8739 14.80413567574702
FUNCUBE-1 (AO-73)       
1 39444U 13066AE  24207.42963320  .00010696  00000+0  10159-2 0  9993
2 39444  97.7212 165.7788 0047723  16.7386 343.5395 14.92806494576401
UWE-3                   
1 39446U 13066AG  24207.42323711  .00006630  00000+0  72904-3 0  9999
2 39446  97.7827 156.3571 0061932  93.9310 266.8988 14.86524144574970
BRITE-CA1 (TORONTO)     
1 40020U 14033L   24207.35557551  .00001801  00000+0  29626-3 0  9995
2 40020  97.8823 343.1473 0082207 331.1089  28.5578 14.69589081540582
DUCHIFAT-1              
1 40021U 14033M   24206.85418372  .00018399  00000+0  11814-2 0  9996
2 40021  98.0916 192.6538 0011218 342.0230  18.0598 15.08468504549801
NANOSATC-BR1            
1 40024U 14033Q   24206.40442489  .00015001  00000+0  10811-2 0  9999
2 40024  98.0659 180.0777 0007635  59.2831 300.9145 15.04247740548843
QB50P1                  
1 40025U 14033R   24207.37239059  .00009917  00000+0  79106-3 0  9996
2 40025  98.0413 169.3926 0015482  45.5405 314.7081 15.00428538549117
QB50P2                  
1 40032U 14033Y   24207.37419724  .00008581  00000+0  70984-3 0  9994
2 40032  98.0104 160.8531 0011296  37.3955 322.8051 14.99116502548914
PERSEUS-M2              
1 40037U 14033AD  24207.15543873  .00003702  00000+0  38228-3 0  9993
2 40037  97.9262 138.0851 0014711  72.9687 287.3141 14.90709153547988
PERSEUS-M1              
1 40039U 14033AF  24207.38762361  .00003281  00000+0  34124-3 0  9998
2 40039  97.9055 134.2646 0014438  71.4675 288.8110 14.90500278547885
POLYITAN-1              
1 40042U 14033AJ  24207.43439817  .00013769  00000+0  10114-2 0  9999
2 40042  98.0734 173.3138 0013017  17.3206 342.8459 15.03505153549090
TIGRISAT                
1 40043U 14033AK  24207.49767372  .00004261  00000+0  56589-3 0  9990
2 40043  97.6996   8.5840 0055167 177.4631 182.6872 14.79218936543429
AEROCUBE 6A             
1 40045U 14033AM  24207.02678526  .00010522  00000+0  12381-2 0  9991
2 40045  97.6726  19.0266 0050529 156.2587 204.0975 14.84083705543640
AEROCUBE 6B             
1 40046U 14033AN  24207.44442459  .00009348  00000+0  10782-2 0  9999
2 40046  97.6695  18.1670 0049206 150.1667 210.2370 14.84982043543907
CANX-4                  
1 40055U 14034C   24207.50562899  .00002308  00000+0  32526-3 0  9998
2 40055  98.3923  43.8498 0014562  70.8501 289.4284 14.78249162542243
CANX-5                  
1 40056U 14034D   24207.51055440  .00002296  00000+0  32349-3 0  9998
2 40056  98.3925  43.8603 0014565  71.0139 289.2648 14.78258687542241
UKUBE-1                 
1 40074U 14037F   24207.37343035  .00009969  00000+0  92681-3 0  9994
2 40074  98.3427 139.6620 0002443 336.1721  23.9384 14.94567214544480
BRITE-PL2 (HEWELIUSZ)   
1 40119U 14049B   24207.18533297  .00003234  00000+0  34781-3 0  9993
2 40119  97.8847 306.6902 0014675 236.6083 123.3730 14.89147201538324
AEROCUBE 5C             
1 40965U 15058B   24207.23198027  .00004741  00000+0  43354-3 0  9997
2 40965  64.7682 244.8182 0192355 296.6778  61.4747 14.83141847262671
AEROCUBE 7              
1 40966U 15058C   24207.19742147  .00005926  00000+0  51876-3 0  9995
2 40966  64.7656 238.3324 0187107 296.3314  61.8683 14.85105647262775
FOX-1A (AO-85)          
1 40967U 15058D   24206.56594123  .00005261  00000+0  48851-3 0  9996
2 40967  64.7766 260.8666 0191515 292.6991  65.3970 14.82537420 10533
SINOD-D 1               
1 40968U 15058E   24207.22751653  .00005893  00000+0  52446-3 0  9990
2 40968  64.7762 251.2352 0186072 291.4925  66.6434 14.84631757 13466
SNAP-3 ALICE            
1 40970U 15058G   24207.18231753  .00019399  00000+0  13011-2 0  9992
2 40970  64.7688 206.3489 0155477 289.5437  68.8944 14.97500287 11475
LMRST-SAT               
1 40971U 15058H   24207.21686641  .00004714  00000+0  43849-3 0  9995
2 40971  64.7752 254.4041 0192690 293.8874  64.2149 14.82481798 10630
SNAP-3 EDDIE            
1 40972U 15058J   24207.18359151  .00020194  00000+0  13376-2 0  9996
2 40972  64.7668 199.6815 0156034 290.4213  68.0205 14.97858405 13578
PROPCUBE 3              
1 40973U 15058K   24207.19543801  .00005833  00000+0  51803-3 0  9996
2 40973  64.7693 241.9338 0189128 295.2381  62.9228 14.84343849 11671
BISONSAT                
1 40974U 15058L   24206.45072309  .00014635  00000+0  10968-2 0  9991
2 40974  64.7656 217.2327 0169886 293.1534  65.1757 14.92051354 11321
SNAP-3 JIMI             
1 40975U 15058M   24207.20089347  .00008388  00000+0  69227-3 0  9997
2 40975  64.7675 229.3933 0180987 294.2342  63.9949 14.87641000 10688
PROPCUBE 1 (FLORA)      
1 40976U 15058N   24206.49783087  .00004709  00000+0  45481-3 0  9999
2 40976  64.7754 272.2383 0190747 295.3347  62.8111 14.81323609 13324
SINOD-D 3               
1 40977U 15058P   24206.63887019  .00006205  00000+0  57159-3 0  9994
2 40977  64.7741 264.7526 0185316 294.4993  63.6889 14.83393595 11589
HORYU-4                 
1 41340U 16012D   24206.71000303  .00017069  00000+0  82195-3 0  9990
2 41340  31.0020  90.8603 0010335 349.8285  10.2145 15.17522088463855
RAVAN                   
1 41849U 16067B   24207.09960375  .00013319  00000+0  71467-3 0  9994
2 41849  98.0663  27.0428 0011784 257.9568 102.0342 15.15032185421725
CELTEE 1                
1 41850U 16067C   24206.41940151  .00009198  00000+0  61607-3 0  9996
2 41850  98.1059  17.8492 0001940  82.8605 277.2842 15.07141490421030
